{
  "type": "FeatureCollection",
  "features": [
    {
      "type": "Feature",
      "properties": {
        "norad_id": 36744,
        "name": "COMS 1",
        "group": "weather",
        "lat": -3.080409928846938,
        "lon": 32.88484343989841,
        "alt_km": 35787.56301009824,
        "timestamp": "2025-12-22T11:33:20.071724+00:00",
        "meta_object_name": "COMS 1",
        "meta_object_id": "2010-032A",
        "meta_epoch": "2025-12-21T20:05:21.835392",
        "meta_mean_motion": 1.00271509,
        "meta_eccentricity": 7.4e-05,
        "meta_inclination": 4.3609,
        "meta_ra_of_asc_node": 77.8959,
        "meta_arg_of_pericenter": 208.2946,
        "meta_mean_anomaly": 233.9792,
        "meta_ephemeris_type": 0,
        "meta_classification_type": "U",
        "meta_norad_cat_id": 36744,
        "meta_element_set_no": 999,
        "meta_rev_at_epoch": 4931,
        "meta_bstar": 0,
        "meta_mean_motion_dot": -3.25e-06,
        "meta_mean_motion_ddot": 0,
        "tle_line1": "1 36744U 10032A   25355.83705828 -.00000325  00000+0  00000+0 0  9990",
        "tle_line2": "2 36744   4.3609  77.8959 0000740 208.2946 233.9792  1.00271509 49312"
      },
      "geometry": {
        "type": "Point",
        "coordinates": [
          32.88484343989841,
          -3.080409928846938
        ]
      }
    },
    {
      "type": "Feature",
      "properties": {
        "norad_id": 37214,
        "name": "FENGYUN 3B",
        "group": "weather",
        "lat": -54.85267464174442,
        "lon": 49.51975638380901,
        "alt_km": 835.9487013439211,
        "timestamp": "2025-12-22T11:33:20.071736+00:00",
        "meta_object_name": "FENGYUN 3B",
        "meta_object_id": "2010-059A",
        "meta_epoch": "2025-12-22T05:24:25.284960",
        "meta_mean_motion": 14.14791588,
        "meta_eccentricity": 0.0021614,
        "meta_inclination": 98.9894,
        "meta_ra_of_asc_node": 36.2686,
        "meta_arg_of_pericenter": 330.7696,
        "meta_mean_anomaly": 109.4182,
        "meta_ephemeris_type": 0,
        "meta_classification_type": "U",
        "meta_norad_cat_id": 37214,
        "meta_element_set_no": 999,
        "meta_rev_at_epoch": 78240,
        "meta_bstar": -3.384e-05,
        "meta_mean_motion_dot": -1.11e-06,
        "meta_mean_motion_ddot": 0,
        "tle_line1": "1 37214U 10059A   25356.22529265 -.00000111  00000+0 -33840-4 0  9992",
        "tle_line2": "2 37214  98.9894  36.2686 0021614 330.7696 109.4182 14.14791588782409"
      },
      "geometry": {
        "type": "Point",
        "coordinates": [
          49.51975638380901,
          -54.85267464174442
        ]
      }
    },
    {
      "type": "Feature",
      "properties": {
        "norad_id": 37849,
        "name": "SUOMI NPP",
        "group": "weather",
        "lat": -48.916988718207094,
        "lon": -56.05519768250487,
        "alt_km": 835.3892475780895,
        "timestamp": "2025-12-22T11:33:20.071747+00:00",
        "meta_object_name": "SUOMI NPP",
        "meta_object_id": "2011-061A",
        "meta_epoch": "2025-12-21T22:15:21.719808",
        "meta_mean_motion": 14.19516721,
        "meta_eccentricity": 0.0002479,
        "meta_inclination": 98.7786,
        "meta_ra_of_asc_node": 293.1866,
        "meta_arg_of_pericenter": 104.3593,
        "meta_mean_anomaly": 255.7858,
        "meta_ephemeris_type": 0,
        "meta_classification_type": "U",
        "meta_norad_cat_id": 37849,
        "meta_element_set_no": 999,
        "meta_rev_at_epoch": 73329,
        "meta_bstar": 6.3109e-05,
        "meta_mean_motion_dot": 8.9e-07,
        "meta_mean_motion_ddot": 0,
        "tle_line1": "1 37849U 11061A   25355.92733472  .00000089  00000+0  63109-4 0  9996",
        "tle_line2": "2 37849  98.7786 293.1866 0002479 104.3593 255.7858 14.19516721733291"
      },
      "geometry": {
        "type": "Point",
        "coordinates": [
          -56.05519768250487,
          -48.916988718207094
        ]
      }
    },
    {
      "type": "Feature",
      "properties": {
        "norad_id": 38552,
        "name": "METEOSAT-10 (MSG-3)",
        "group": "weather",
        "lat": -1.6981084393243797,
        "lon": -95.1207546216729,
        "alt_km": 35783.52889911924,
        "timestamp": "2025-12-22T11:33:20.071759+00:00",
        "meta_object_name": "METEOSAT-10 (MSG-3)",
        "meta_object_id": "2012-035B",
        "meta_epoch": "2025-12-22T01:10:55.257024",
        "meta_mean_motion": 1.00276818,
        "meta_eccentricity": 7.13e-05,
        "meta_inclination": 4.2491,
        "meta_ra_of_asc_node": 61.6977,
        "meta_arg_of_pericenter": 266.7505,
        "meta_mean_anomaly": 140.4613,
        "meta_ephemeris_type": 0,
        "meta_classification_type": "U",
        "meta_norad_cat_id": 38552,
        "meta_element_set_no": 999,
        "meta_rev_at_epoch": 4908,
        "meta_bstar": 0,
        "meta_mean_motion_dot": 1.6e-07,
        "meta_mean_motion_ddot": 0,
        "tle_line1": "1 38552U 12035B   25356.04925066  .00000016  00000+0  00000+0 0  9992",
        "tle_line2": "2 38552   4.2491  61.6977 0000713 266.7505 140.4613  1.00276818 49086"
      },
      "geometry": {
        "type": "Point",
        "coordinates": [
          -95.1207546216729,
          -1.6981084393243797
        ]
      }
    },
    {
      "type": "Feature",
      "properties": {
        "norad_id": 38771,
        "name": "METOP-B",
        "group": "weather",
        "lat": -48.26692223315569,
        "lon": -143.58467936886987,
        "alt_km": 828.003776741315,
        "timestamp": "2025-12-22T11:33:20.071770+00:00",
        "meta_object_name": "METOP-B",
        "meta_object_id": "2012-049A",
        "meta_epoch": "2025-12-22T02:02:06.027936",
        "meta_mean_motion": 14.21411843,
        "meta_eccentricity": 0.0003196,
        "meta_inclination": 98.6785,
        "meta_ra_of_asc_node": 45.8846,
        "meta_arg_of_pericenter": 124.4139,
        "meta_mean_anomaly": 235.7341,
        "meta_ephemeris_type": 0,
        "meta_classification_type": "U",
        "meta_norad_cat_id": 38771,
        "meta_element_set_no": 999,
        "meta_rev_at_epoch": 68810,
        "meta_bstar": 8.5158e-05,
        "meta_mean_motion_dot": 1.43e-06,
        "meta_mean_motion_ddot": 0,
        "tle_line1": "1 38771U 12049A   25356.08479199  .00000143  00000+0  85158-4 0  9998",
        "tle_line2": "2 38771  98.6785  45.8846 0003196 124.4139 235.7341 14.21411843688106"
      },
      "geometry": {
        "type": "Point",
        "coordinates": [
          -143.58467936886987,
          -48.26692223315569
        ]
      }
    },
    {
      "type": "Feature",
      "properties": {
        "norad_id": 39216,
        "name": "INSAT-3D",
        "group": "weather",
        "lat": -1.1260164590394552,
        "lon": 34.138585764401135,
        "alt_km": 35792.07980508536,
        "timestamp": "2025-12-22T11:33:20.071781+00:00",
        "meta_object_name": "INSAT-3D",
        "meta_object_id": "2013-038B",
        "meta_epoch": "2025-12-21T22:22:26.393088",
        "meta_mean_motion": 1.00276295,
        "meta_eccentricity": 0.0001821,
        "meta_inclination": 1.4671,
        "meta_ra_of_asc_node": 84.8937,
        "meta_arg_of_pericenter": 152.8025,
        "meta_mean_anomaly": 318.1565,
        "meta_ephemeris_type": 0,
        "meta_classification_type": "U",
        "meta_norad_cat_id": 39216,
        "meta_element_set_no": 999,
        "meta_rev_at_epoch": 4530,
        "meta_bstar": 0,
        "meta_mean_motion_dot": -3.17e-06,
        "meta_mean_motion_ddot": 0,
        "tle_line1": "1 39216U 13038B   25355.93224992 -.00000317  00000+0  00000+0 0  9996",
        "tle_line2": "2 39216   1.4671  84.8937 0001821 152.8025 318.1565  1.00276295 45309"
      },
      "geometry": {
        "type": "Point",
        "coordinates": [
          34.138585764401135,
          -1.1260164590394552
        ]
      }
    },
    {
      "type": "Feature",
      "properties": {
        "norad_id": 39260,
        "name": "FENGYUN 3C",
        "group": "weather",
        "lat": -79.72529544058662,
        "lon": 29.045856335065018,
        "alt_km": 850.5656220282472,
        "timestamp": "2025-12-22T11:33:20.071792+00:00",
        "meta_object_name": "FENGYUN 3C",
        "meta_object_id": "2013-052A",
        "meta_epoch": "2025-12-22T05:10:07.294080",
        "meta_mean_motion": 14.15699034,
        "meta_eccentricity": 0.0014804,
        "meta_inclination": 98.4774,
        "meta_ra_of_asc_node": 333.4325,
        "meta_arg_of_pericenter": 168.5371,
        "meta_mean_anomaly": 191.6144,
        "meta_ephemeris_type": 0,
        "meta_classification_type": "U",
        "meta_norad_cat_id": 39260,
        "meta_element_set_no": 999,
        "meta_rev_at_epoch": 63352,
        "meta_bstar": 6.5895e-05,
        "meta_mean_motion_dot": 8.8e-07,
        "meta_mean_motion_ddot": 0,
        "tle_line1": "1 39260U 13052A   25356.21536220  .00000088  00000+0  65895-4 0  9995",
        "tle_line2": "2 39260  98.4774 333.4325 0014804 168.5371 191.6144 14.15699034633529"
      },
      "geometry": {
        "type": "Point",
        "coordinates": [
          29.045856335065018,
          -79.72529544058662
        ]
      }
    }
  ]
}